GLOBALSTAR M069         
1 31573U 07020C   26157.66249649 -.00000059  00000+0  30602-3 0  9993
2 31573  52.0043 281.9152 0002540 126.3601 339.9874 12.23470912877515
GLOBALSTAR M072         
1 31574U 07020D   26157.67617514 -.00000080  00000+0  57448-4 0  9997
2 31574  51.9906 128.2279 0001360 303.0120 229.3104 11.91658427873724
GLOBALSTAR M066         
1 32265U 07048C   26157.54004560 -.00000084  00000+0  90037-4 0  9997
2 32265  51.9586  88.4761 0005283  21.1571 150.0426 12.30389109858918
GLOBALSTAR M079         
1 37188U 10054A   26157.70801535 -.00000099  00000+0  24097-4 0  9991
2 37188  52.0014 140.5694 0000450 355.9383 174.6455 12.62265987721229
GLOBALSTAR M074         
1 37189U 10054B   26157.73477701 -.00000104  00000+0 -98099-6 0  9992
2 37189  51.9990 139.7545 0000320  45.9147 126.4775 12.62268438721837
GLOBALSTAR M076         
1 37190U 10054C   26157.68168021 -.00000106  00000+0 -10381-4 0  9998
2 37190  52.0004 140.1180 0000502  28.4712 142.8481 12.62261825721541
GLOBALSTAR M077         
1 37191U 10054D   26157.41232146 -.00000081  00000+0 -57774-4 0  9999
2 37191  51.9935 206.6453 0002915 153.1974 231.7362 11.67547621719885
GLOBALSTAR M075         
1 37192U 10054E   26157.77412868 -.00000113  00000+0 -53947-4 0  9994
2 37192  51.9921 181.8990 0000088 158.0266  13.2732 12.62267316720622
GLOBALSTAR M073         
1 37193U 10054F   26157.61600763 -.00000097  00000+0  40150-4 0  9993
2 37193  52.0054  96.4701 0000712  27.0443 144.0911 12.62262094722597
GLOBALSTAR M083         
1 37739U 11033A   26157.47103065 -.00000091  00000+0  70736-4 0  9991
2 37739  51.9872  45.1551 0000798  50.1115 123.3031 12.62262908691592
GLOBALSTAR M088         
1 37740U 11033B   26157.72674603 -.00000083  00000+0  11760-3 0  9994
2 37740  52.0228 310.7806 0000859 109.9132 264.2835 12.62268556687176
GLOBALSTAR M091         
1 37741U 11033C   26157.58098396 -.00000078  00000+0  14224-3 0  9990
2 37741  52.0005 274.2047 0000542 129.4481 243.1715 12.62263722687942
GLOBALSTAR M085         
1 37742U 11033D   26156.96925399 -.00000087  00000+0  93746-4 0  9991
2 37742  52.0117 227.3498 0000250 171.4713   0.1065 12.62263874688372
GLOBALSTAR M081         
1 37743U 11033E   26157.53596262 -.00000087  00000+0  94016-4 0  9990
2 37743  51.9947 228.0736 0000313 127.8699 339.7375 12.62264843688599
GLOBALSTAR M089         
1 37744U 11033F   26157.82689404 -.00000100  00000+0  18514-4 0  9999
2 37744  51.9904 181.3483 0000389 105.0738  65.9966 12.62266978689471
GLOBALSTAR M084         
1 38040U 11080A   26157.96355635 -.00000099  00000+0  28519-4 0  9995
2 38040  52.0025  48.4061 0001004  70.8772 301.4593 12.62267437667475
GLOBALSTAR M080         
1 38041U 11080B   26157.41563197 -.00000091  00000+0  72696-4 0  9997
2 38041  52.0074  51.7883 0000263  72.2088  99.0446 12.62269239667526
GLOBALSTAR M082         
1 38042U 11080C   26157.91430556 -.00000087  00000+0  92271-4 0  9991
2 38042  52.0099   5.7707 0000537  83.0148 125.5424 12.62269925668297
GLOBALSTAR M092         
1 38043U 11080D   26157.56303221 -.00000100  00000+0  19293-4 0  9990
2 38043  52.0079  97.2355 0000498  49.0852 121.4536 12.62266744666700
GLOBALSTAR M090         
1 38044U 11080E   26157.81870275 -.00000097  00000+0  39601-4 0  9997
2 38044  52.0144   0.0143 0000795  78.9917 293.8558 12.62268915668403
GLOBALSTAR M086         
1 38045U 11080F   26157.88206019 -.00000101  00000+0  16161-4 0  9996
2 38045  51.9917 359.7684 0001608  50.9441 150.2335 12.62286379668357
GLOBALSTAR M097         
1 39072U 13005A   26157.63123837 -.00000076  00000+0  15425-3 0  9997
2 39072  52.0056 275.4693 0000477 118.9323 241.1592 12.62247322615571
GLOBALSTAR M093         
1 39073U 13005B   26157.60460670 -.00000076  00000+0  15716-3 0  9997
2 39073  52.0112 268.8929 0000349 106.5820 253.5085 12.62265696615529
GLOBALSTAR M094         
1 39074U 13005C   26157.76290113 -.00000105  00000+0 -58681-5 0  9992
2 39074  51.9931 182.5388 0000156 323.0317  37.0538 12.62268521617150
GLOBALSTAR M096         
1 39075U 13005D   26157.93471683 -.00000090  00000+0  79096-4 0  9999
2 39075  52.0064 230.8093 0000222 154.5582 205.5296 12.62265406616099
GLOBALSTAR M078         
1 39076U 13005E   26157.74931459 -.00000118  00000+0 -79998-4 0  9994
2 39076  51.9892 315.3953 0000643 189.9119 170.1735 12.62259830614699
GLOBALSTAR M095         
1 39077U 13005F   26157.69691048 -.00000097  00000+0  36933-4 0  9993
2 39077  52.0094 313.1447 0000405 120.9347 239.1560 12.62263267614549
GLOBALSTAR M087         
1 52888U 22064A   26157.55183191 -.00000091  00000+0  71953-4 0  9998
2 52888  51.9992  94.8304 0000525  14.8158 345.2724 12.62268876189794
